BEIDOU-2 IGSO-1         
1 36828U 10036A   26132.68902604 -.00000041  00000+0  00000+0 0  9990
2 36828  54.2951 163.2807 0058855 224.5644 197.8413  1.00282752 57743
BEIDOU-2 G4             
1 37210U 10057A   26139.58046023 -.00000115  00000+0  00000+0 0  9991
2 37210   3.5768  69.1013 0005812 208.4553 328.6456  1.00271652 57007
BEIDOU-2 IGSO-2         
1 37256U 10068A   26137.67739373 -.00000224  00000+0  00000+0 0  9999
2 37256  47.6069 272.2104 0054652 211.9480 101.4506  1.00292865 56485
BEIDOU-2 IGSO-3         
1 37384U 11013A   26134.75077336 -.00000206  00000+0  00000+0 0  9992
2 37384  62.3634  40.4703 0033942 185.9417  24.6219  1.00276202 55324
BEIDOU-2 IGSO-4         
1 37763U 11038A   26139.54212613  .00000027  00000+0  00000+0 0  9991
2 37763  54.5943 165.9281 0158494 231.3451 127.0637  1.00290554 54359
BEIDOU-2 IGSO-5         
1 37948U 11073A   26138.85233546 -.00000178  00000+0  00000+0 0  9994
2 37948  47.7336 271.9068 0112056 220.5863 143.1391  1.00255056 52842
BEIDOU-2 G5             
1 38091U 12008A   26139.53527944  .00000055  00000+0  00000+0 0  9990
2 38091   3.5030  69.8546 0010923 270.0505 148.6775  1.00272791 52088
BEIDOU-2 M3             
1 38250U 12018A   26137.58206861 -.00000055  00000+0  00000+0 0  9994
2 38250  55.7849 305.9066 0019705 276.2878  83.4643  1.86229893 95379
BEIDOU-2 M4             
1 38251U 12018B   26137.51432167 -.00000055  00000+0  00000+0 0  9998
2 38251  55.6853 305.1252 0010929 280.3706  79.4822  1.86229518 95376
BEIDOU-2 M6             
1 38775U 12050B   26137.76112590 -.00000044  00000+0  00000+0 0  9995
2 38775  56.5190  63.9003 0014276 352.3539   7.6101  1.86230796 92748
BEIDOU-2 G6             
1 38953U 12059A   26139.39773185 -.00000177  00000+0  00000+0 0  9993
2 38953   4.3489  73.8154 0010200 320.1869  70.3081  1.00270244 49628
BEIDOU-3S IGSO-1S       
1 40549U 15019A   26139.39972520 -.00000183  00000+0  00000+0 0  9997
2 40549  49.2507 295.8056 0038107 190.0507 348.8003  1.00255776 40785
BEIDOU-3S M2S           
1 40748U 15037A   26139.32804157 -.00000056  00000+0  00000+0 0  9990
2 40748  54.8971 303.0395 0007602 265.9218  93.9658  1.86231911 73585
BEIDOU-3S M1S           
1 40749U 15037B   26139.00208343 -.00000056  00000+0  00000+0 0  9991
2 40749  54.8942 303.0383 0004029  57.2164 302.7967  1.86254720 73580
BEIDOU-3S IGSO-2S       
1 40938U 15053A   26138.81066755 -.00000156  00000+0  00000+0 0  9997
2 40938  49.2693 259.1314 0064803 191.1122 174.4649  1.00265498 39060
BEIDOU-2 IGSO-6         
1 41434U 16021A   26139.50367139 -.00000169  00000+0  00000+0 0  9996
2 41434  60.1876  38.3249 0057330 232.4490 242.0698  1.00264059 37195
BEIDOU-2 G7             
1 41586U 16037A   26139.55947336 -.00000355  00000+0  00000+0 0  9996
2 41586   1.6497  69.0380 0007284 359.1867 120.9032  1.00265843  6607
BEIDOU-3 M1             
1 43001U 17069A   26139.13738720 -.00000041  00000+0  00000+0 0  9997
2 43001  56.6685  64.0414 0011454 321.9528  37.9575  1.86230741 58067
BEIDOU-3 M2             
1 43002U 17069B   26139.07605640 -.00000041  00000+0  00000+0 0  9995
2 43002  56.6672  64.0798 0009765 344.7393  15.2220  1.86230678 58058
BEIDOU-3 M7             
1 43107U 18003A   26138.81769683 -.00000057  00000+0  00000+0 0  9996
2 43107  54.3550 303.3391 0005162  86.8406 273.1929  1.86227979 56800
BEIDOU-3 M8             
1 43108U 18003B   26139.29987814 -.00000058  00000+0  00000+0 0  9999
2 43108  54.3476 303.3037 0002123 274.5929  85.3576  1.86230915 56822
BEIDOU-3 M4             
1 43207U 18018A   26138.13174855 -.00000043  00000+0  00000+0 0  9994
2 43207  56.6264  64.1398 0007886   9.7385 350.2635  1.86230951 56188
BEIDOU-3 M3             
1 43208U 18018B   26139.27212808 -.00000041  00000+0  00000+0 0  9990
2 43208  56.6270  64.1059 0009516 335.2934  24.6525  1.86230643 56200
BEIDOU-3 M9             
1 43245U 18029A   26138.41587542 -.00000055  00000+0  00000+0 0  9993
2 43245  54.2214 300.9891 0000930 116.3065 243.6755  1.86227947 55347
BEIDOU-3 M10            
1 43246U 18029B   26139.42430291 -.00000056  00000+0  00000+0 0  9995
2 43246  54.2192 300.9812 0004448  37.9003 322.1046  1.86229083 55343
BEIDOU-2 IGSO-7         
1 43539U 18057A   26139.47491439 -.00000032  00000+0  00000+0 0  9991
2 43539  55.1878 163.3089 0104388 237.9948 118.6458  1.00260128 28830
BEIDOU-3 M5             
1 43581U 18062A   26139.11155625  .00000056  00000+0  00000+0 0  9994
2 43581  54.0834 183.2930 0005103 287.7029  72.3233  1.86228797 53094
BEIDOU-3 M6             
1 43582U 18062B   26137.36403050  .00000082  00000+0  00000+0 0  9997
2 43582  54.0833 183.3416 0004738  15.5717 344.5351  1.86227445 53069
BEIDOU-3 M12            
1 43602U 18067A   26137.30242253  .00000084  00000+0  00000+0 0  9997
2 43602  54.1786 182.0879 0007743  31.4775 328.6606  1.86227757 52543
BEIDOU-3 M11            
1 43603U 18067B   26139.04825810  .00000058  00000+0  00000+0 0  9998
2 43603  54.1757 181.9925 0004396  17.0226 343.0733  1.86227309 52606
BEIDOU-3 M13            
1 43622U 18072A   26139.00324684 -.00000042  00000+0  00000+0 0  9998
2 43622  56.6003  63.6232 0008188 322.9807  36.9540  1.86231208 52114
